[{"OBJECT_NAME":"TIANMU-1 08","OBJECT_ID":"2023-101B","EPOCH":"2026-03-07T00:03:25.475616","MEAN_MOTION":15.29204229,"ECCENTRICITY":0.00063808,"INCLINATION":97.2717,"RA_OF_ASC_NODE":118.7901,"ARG_OF_PERICENTER":134.2174,"MEAN_ANOMALY":225.9592,"EPHEMERIS_TYPE":0,"CLASSIFICATION_TYPE":"U","NORAD_CAT_ID":57400,"ELEMENT_SET_NO":999,"REV_AT_EPOCH":14602,"BSTAR":1.4774513e-5,"MEAN_MOTION_DOT":3.46e-6,"MEAN_MOTION_DDOT":0},{"OBJECT_NAME":"STARLINK-30865","OBJECT_ID":"2023-170W","EPOCH":"2026-03-09T00:00:04.000320","MEAN_MOTION":15.26709308,"ECCENTRICITY":0.0001357,"INCLINATION":42.999,"RA_OF_ASC_NODE":186.7067,"ARG_OF_PERICENTER":243.4599,"MEAN_ANOMALY":281.8761,"EPHEMERIS_TYPE":0,"CLASSIFICATION_TYPE":"U","NORAD_CAT_ID":58226,"ELEMENT_SET_NO":999,"REV_AT_EPOCH":574,"BSTAR":0.0002482558,"MEAN_MOTION_DOT":6.399e-5,"MEAN_MOTION_DDOT":0}]
