TIANMU-1 08             
1 57400U 23101B   26066.00237819  .00000346  00000+0  14775-4 0  9993
2 57400  97.2717 118.7901 0006380 134.2174 225.9592 15.29204229146020
STARLINK-30865          
1 58226U 23170W   26068.00004630  .00006399  00000+0  24826-3 0  9992
2 58226  42.9990 186.7067 0001357 243.4599 281.8761 15.26709308  5745
